[{"name":"JUPITER 3 (ECHOSTAR 24)","l1":"1 57479U 23108A   26182.48802836  .00000000  00000+0  00000+0 0  9992","l2":"2 57479   0.0238  29.1846 0001066  71.7526 259.0748  1.00271938 10791","cat":"geostationary"},{"name":"GALAXY 37 (G-37)","l1":"1 57493U 23112A   26183.62872656  .00000000  00000+0  00000+0 0  9997","l2":"2 57493   0.0199  18.7322 0002059  87.9519 273.3259  1.00270023 10699","cat":"geostationary"},{"name":"LUDI TANCE-4 01A","l1":"1 57624U 23120A   26182.82627434 -.00000162  00000+0  00000+0 0  9995","l2":"2 57624  15.0947 193.6070 0001281  17.4858  95.7535  1.00266926 10695","cat":"geostationary"},{"name":"TJS-10","l1":"1 58204U 23169A   26183.75054780 -.00000239  00000+0  00000+0 0  9999","l2":"2 58204   2.5821  80.3140 0004215 104.6482  98.4495  1.00269643  9696","cat":"geostationary"},{"name":"ZHONGXING-6E","l1":"1 58253U 23172A   26183.82134193 -.00000351  00000+0  00000+0 0  9997","l2":"2 58253   0.0180 286.5190 0002560 173.5002 232.0467  1.00271594  9817","cat":"geostationary"},{"name":"YAOGAN-41","l1":"1 58582U 23197A   26183.82805162 -.00000349  00000+0  00000+0 0  9997","l2":"2 58582   3.1011 313.3657 0014383 196.2212 192.5831  1.00273213  9485","cat":"geostationary"},{"name":"OVZON-3","l1":"1 58698U 24003A   26183.80878770  .00000062  00000+0  00000+0 0  9996","l2":"2 58698   0.0042 139.1464 0000389 252.9669 239.5911  1.00272333  7605","cat":"geostationary"},{"name":"INSAT-3DS","l1":"1 58990U 24033A   26183.38496355 -.00000144  00000+0  00000+0 0  9994","l2":"2 58990   0.0716  96.8706 0001431 355.3676  48.8097  1.00269425 47227","cat":"geostationary"},{"name":"MERAH PUTIH 2","l1":"1 58995U 24035A   26183.75883637  .00000000  00000+0  00000+0 0  9995","l2":"2 58995   0.0147  16.9166 0001257  72.8856 217.1248  1.00266633  8741","cat":"geostationary"},{"name":"TJS-11","l1":"1 59020U 24037A   26183.82252712 -.00000351  00000+0  00000+0 0  9999","l2":"2 59020   4.1793 327.2629 0003285 126.9511 235.3879  1.00268741  8741","cat":"geostationary"},{"name":"HULIANWAN GAOGUI-01 (H*)","l1":"1 59069U 24040A   26183.58893426  .00000167  00000+0  00000+0 0  9996","l2":"2 59069   0.0710 331.5789 0002702  74.0304 120.6462  1.00275611  7487","cat":"geostationary"},{"name":"EUTELSAT 36D","l1":"1 59346U 24059A   26183.75524045  .00000000  00000+0  00000+0 0  9997","l2":"2 59346   0.0226  45.3358 0000338  96.6116  86.5733  1.00270572  8307","cat":"geostationary"},{"name":"PAKSAT-MM1","l1":"1 59915U 24104A   26183.75634118  .00000164  00000+0  00000+0 0  9994","l2":"2 59915   0.0157 182.3195 0002625 255.5315 153.4249  1.00275328  7681","cat":"geostationary"},{"name":"ASTRA 1P (SES-24)","l1":"1 60086U 24115A   26183.74202801  .00000131  00000+0  00000+0 0  9990","l2":"2 60086   0.0604 342.3847 0000446 177.5391  47.2003  1.00270842  7355","cat":"geostationary"},{"name":"GOES 19","l1":"1 60133U 24119A   26183.56768633 -.00000238  00000+0  00000+0 0  9996","l2":"2 60133   0.0126  77.9489 0000538  80.1000 251.7332  1.00271173  7117","cat":"geostationary"},{"name":"ZHONGXING-3A","l1":"1 60179U 24122A   26182.60462942 -.00000304  00000+0  00000+0 0  9992","l2":"2 60179   0.0347 112.7027 0001711  13.4089 112.7870  1.00276406  7452","cat":"geostationary"},{"name":"TURKSAT 6A","l1":"1 60233U 24127A   26183.75963941  .00000000  00000+0  00000+0 0  9992","l2":"2 60233   0.0147 206.1884 0002771 304.3812  85.6926  1.00269784  7173","cat":"geostationary"},{"name":"HULIANWAN GAOGUI-02 (H*)","l1":"1 60327U 24135A   26182.61465295 -.00000164  00000+0  00000+0 0  9990","l2":"2 60327   0.0441 356.1189 0006987  15.2077 282.6697  1.00268199  7647","cat":"geostationary"},{"name":"ZHONGXING-4A","l1":"1 60606U 24151A   26183.75995858 -.00000351  00000+0  00000+0 0  9995","l2":"2 60606   1.2762 270.6169 0000347 175.5443 226.4187  1.00275063  6912","cat":"geostationary"},{"name":"DSN-3 (KIRAMEKI-3)","l1":"1 61733U 24198A   26183.76761339 -.00000239  00000+0  00000+0 0  9999","l2":"2 61733   0.0185  26.8434 0000984  90.8159 223.5506  1.00271835  6079","cat":"geostationary"},{"name":"KOREASAT 6A","l1":"1 61910U 24206A   26183.73001425 -.00000351  00000+0  00000+0 0  9991","l2":"2 61910   0.0166  91.8739 0000844 357.1658 210.5323  1.00269038  5998","cat":"geostationary"},{"name":"OPTUS-X (ADS-01)","l1":"1 62006U 24212A   26183.29003006 -.00000132  00000+0  00000+0 0  9990","l2":"2 62006   0.0252 290.8875 0002390 212.1220  38.1453  1.00274824  5915","cat":"geostationary"},{"name":"GSAT-N2 (GSAT-20)","l1":"1 62028U 24214A   26183.79764067 -.00000009  00000+0  00000+0 0  9995","l2":"2 62028   0.0701  97.8153 0002143 355.6680 182.4526  1.00272910  6055","cat":"geostationary"},{"name":"SXM-9","l1":"1 62259U 24234A   26183.28058558 -.00000195  00000+0  00000+0 0  9994","l2":"2 62259   0.0144 342.1476 0004692 337.2087 336.8181  1.00271383  5722","cat":"geostationary"},{"name":"TJS-12","l1":"1 62374U 24246A   26183.75418256 -.00000219  00000+0  00000+0 0  9999","l2":"2 62374   0.6382 300.6304 0002239 105.0572 293.1592  1.00273247  5726","cat":"geostationary"},{"name":"NUVIEW ALPHA","l1":"1 62455U 24252B   26183.42355127 -.00000205  00000+0  00000+0 0  9992","l2":"2 62455   0.0500  33.1616 0001093  43.1718 273.4976  1.00271006  3970","cat":"geostationary"},{"name":"AGILA","l1":"1 62456U 24252C   26183.68400307 -.00000171  00000+0  00000+0 0  9994","l2":"2 62456   0.0618 123.2412 0001078 359.0538 196.8249  1.00271302  5318","cat":"geostationary"},{"name":"NUVIEW BRAVO","l1":"1 62457U 24252D   26183.42355127 -.00000204  00000+0  00000+0 0  9993","l2":"2 62457   0.0714 158.3856 0001692 340.3431 211.1034  1.00271680  3943","cat":"geostationary"},{"name":"THURAYA-4","l1":"1 62483U 25001A   26183.16364502  .00000150  00000+0  00000+0 0  9992","l2":"2 62483   0.0200  63.3452 0000374  94.5080 225.5636  1.00271793  4328","cat":"geostationary"},{"name":"SHIJIAN-25 (SJ-25)","l1":"1 62485U 25002A   26183.76460027 -.00000341  00000+0  00000+0 0  9993","l2":"2 62485   5.1479  61.0664 0051630 174.7980  87.5189  1.00272141  5514","cat":"geostationary"},{"name":"TJS-14","l1":"1 62804U 25017A   26183.72877484  .00000126  00000+0  00000+0 0  9999","l2":"2 62804   0.7490 296.6646 0001326 287.8339 336.9984  1.00271568  5426","cat":"geostationary"}]