OBJECT_NAME,OBJECT_ID,EPOCH,MEAN_MOTION,ECCENTRICITY,INCLINATION,RA_OF_ASC_NODE,ARG_OF_PERICENTER,MEAN_ANOMALY,EPHEMERIS_TYPE,CLASSIFICATION_TYPE,NORAD_CAT_ID,ELEMENT_SET_NO,REV_AT_EPOCH,BSTAR,MEAN_MOTION_DOT,MEAN_MOTION_DDOT
JUPITER 3 (ECHOSTAR 24),2023-108A,2026-07-01T11:42:45.650304,1.00271938,.00010669,0.0238,29.1846,71.7526,259.0748,0,U,57479,999,1079,0,0,0
GALAXY 37 (G-37),2023-112A,2026-07-02T15:05:21.974784,1.00270023,.0002059,0.0199,18.7322,87.9519,273.3259,0,U,57493,999,1069,0,0,0
LUDI TANCE-4 01A,2023-120A,2026-07-01T19:49:50.102976,1.00266926,.00012811,15.0947,193.6070,17.4858,95.7535,0,U,57624,999,1069,0,-.162E-5,0
TJS-10,2023-169A,2026-07-02T18:00:47.329920,1.00269643,.0004215,2.5821,80.3140,104.6482,98.4495,0,U,58204,999,969,0,-.239E-5,0
ZHONGXING-6E,2023-172A,2026-07-02T19:42:43.942752,1.00271594,.000256,0.0180,286.5190,173.5002,232.0467,0,U,58253,999,981,0,-.351E-5,0
YAOGAN-41,2023-197A,2026-07-02T19:52:23.659968,1.00273213,.0014383,3.1011,313.3657,196.2212,192.5831,0,U,58582,999,948,0,-.349E-5,0
OVZON-3,2024-003A,2026-07-02T19:24:39.257280,1.00272333,.0000389,0.0042,139.1464,252.9669,239.5911,0,U,58698,999,760,0,.62E-6,0
INSAT-3DS,2024-033A,2026-07-02T09:14:20.850720,1.00269425,.0001431,0.0716,96.8706,355.3676,48.8097,0,U,58990,999,4722,0,-.144E-5,0
MERAH PUTIH 2,2024-035A,2026-07-02T18:12:43.462368,1.00266633,.0001257,0.0147,16.9166,72.8856,217.1248,0,U,58995,999,874,0,0,0
TJS-11,2024-037A,2026-07-02T19:44:26.343168,1.00268741,.0003285,4.1793,327.2629,126.9511,235.3879,0,U,59020,999,874,0,-.351E-5,0
HULIANWAN GAOGUI-01 (HG-01),2024-040A,2026-07-02T14:08:03.920064,1.00275611,.0002702,0.0710,331.5789,74.0304,120.6462,0,U,59069,999,748,0,.167E-5,0
EUTELSAT 36D,2024-059A,2026-07-02T18:07:32.774880,1.00270572,.0000338,0.0226,45.3358,96.6116,86.5733,0,U,59346,999,830,0,0,0
PAKSAT-MM1,2024-104A,2026-07-02T18:09:07.877952,1.00275328,.0002625,0.0157,182.3195,255.5315,153.4249,0,U,59915,999,768,0,.164E-5,0
ASTRA 1P (SES-24),2024-115A,2026-07-02T17:48:31.220064,1.00270842,.0000446,0.0604,342.3847,177.5391,47.2003,0,U,60086,999,735,0,.131E-5,0
GOES 19,2024-119A,2026-07-02T13:37:28.098912,1.00271173,.0000538,0.0126,77.9489,80.1000,251.7332,0,U,60133,999,711,0,-.238E-5,0
ZHONGXING-3A,2024-122A,2026-07-01T14:30:39.981888,1.00276406,.0001711,0.0347,112.7027,13.4089,112.7870,0,U,60179,999,745,0,-.304E-5,0
TURKSAT 6A,2024-127A,2026-07-02T18:13:52.845024,1.00269784,.0002771,0.0147,206.1884,304.3812,85.6926,0,U,60233,999,717,0,0,0
HULIANWAN GAOGUI-02 (HG-02),2024-135A,2026-07-01T14:45:06.014880,1.00268199,.00069873,0.0441,356.1189,15.2077,282.6697,0,U,60327,999,764,0,-.164E-5,0
ZHONGXING-4A,2024-151A,2026-07-02T18:14:20.421312,1.00275063,.0000347,1.2762,270.6169,175.5443,226.4187,0,U,60606,999,691,0,-.351E-5,0
DSN-3 (KIRAMEKI-3),2024-198A,2026-07-02T18:25:21.796896,1.00271835,.0000984,0.0185,26.8434,90.8159,223.5506,0,U,61733,999,607,0,-.239E-5,0
KOREASAT 6A,2024-206A,2026-07-02T17:31:13.231200,1.00269038,.0000844,0.0166,91.8739,357.1658,210.5323,0,U,61910,999,599,0,-.351E-5,0
OPTUS-X (ADS-01),2024-212A,2026-07-02T06:57:38.597184,1.00274824,.000239,0.0252,290.8875,212.1220,38.1453,0,U,62006,999,591,0,-.132E-5,0
GSAT-N2 (GSAT-20),2024-214A,2026-07-02T19:08:36.153888,1.00272910,.0002143,0.0701,97.8153,355.6680,182.4526,0,U,62028,999,605,0,-.9E-7,0
SXM-9,2024-234A,2026-07-02T06:44:02.594112,1.00271383,.0004692,0.0144,342.1476,337.2087,336.8181,0,U,62259,999,572,0,-.195E-5,0
TJS-12,2024-246A,2026-07-02T18:06:01.373184,1.00273247,.0002239,0.6382,300.6304,105.0572,293.1592,0,U,62374,999,572,0,-.219E-5,0
NUVIEW ALPHA,2024-252B,2026-07-02T10:09:54.829728,1.00271006,.0001093,0.0500,33.1616,43.1718,273.4976,0,U,62455,999,397,0,-.205E-5,0
AGILA,2024-252C,2026-07-02T16:24:57.865248,1.00271302,.0001078,0.0618,123.2412,359.0538,196.8249,0,U,62456,999,531,0,-.171E-5,0
NUVIEW BRAVO,2024-252D,2026-07-02T10:09:54.829728,1.00271680,.0001692,0.0714,158.3856,340.3431,211.1034,0,U,62457,999,394,0,-.204E-5,0
THURAYA-4,2025-001A,2026-07-02T03:55:38.929728,1.00271793,.0000374,0.0200,63.3452,94.5080,225.5636,0,U,62483,999,432,0,.15E-5,0
SHIJIAN-25 (SJ-25),2025-002A,2026-07-02T18:21:01.463328,1.00272141,.005163,5.1479,61.0664,174.7980,87.5189,0,U,62485,999,551,0,-.341E-5,0
TJS-14,2025-017A,2026-07-02T17:29:26.146176,1.00271568,.0001326,0.7490,296.6646,287.8339,336.9984,0,U,62804,999,542,0,.126E-5,0
